#dP2024  1 10  0  0  0.00000000      96 __u+U IGS20 FIT  IAC
## 2296 259200.00000000   900.00000000 60319 0.0000000000000
+  131   C01C02C03C04C05C06C07C08C09C10C11C12C13C14C16C19C20
+        C21C22C23C24C25C26C27C28C29C30C32C33C34C35C36C37C38
+        C39C40C41C42C43C44C45C46C59C60C62E02E03E04E05E07E08
+        E09E10E11E12E13E14E15E18E19E21E24E25E26E27E30E31E33
+        E34E36G01G02G03G04G05G06G07G08G09G10G11G12G13G14G15
+        G16G17G18G19G20G21G22G23G24G25G26G28G29G30G31G32J02
+        J03J04J07R01R02R03R04R05R06R07R08R09R10R11R12R13R14
+        R15R16R17R18R19R20R21R22R23R24R25R26  0  0  0  0  0
++        17 17 18 17 17  9  9 10  9  9  9  8  9  9  9  7  7
++         7  7  7  7  7  7  7  7  7  7  7  7  7  7  7  7  8
++         8  8  7  7  7  7  7  7 18 17 17  4  4  4  5  4  4
++         4  4  4  4  4  4  5  5  4  4  4  4  4  4  5  5  4
++         5  4  4  4  4  4  4  4  4  4  4  4  4  4  4  4  4
++         4  4  4  3  4  4  4  4  4  4  4  4  4  4  3  4  8
++         8  9 17  8  6  6  6  6 15  5  6  6 15  6  6  7  6
++         6  6  6  6  8  8  6  6 15  6  8 11  0  0  0  0  0
%c M  cc GPS ccc cccc cccc cccc cccc ccccc ccccc ccccc ccccc
%c cc cc ccc ccc cccc cccc cccc cccc ccccc ccccc ccccc ccccc
%f  0.0000000  0.000000000  0.00000000000  0.000000000000000
%f  0.0000000  0.000000000  0.00000000000  0.000000000000000
%i    0    0    0    0      0      0      0      0         0
%i    0    0    0    0      0      0      0      0         0
/* INFORMATION & ANALYSIS CENTER (IAC)            RAPID DATA
/* S/V CLOCKS ARE ALIGNED TO GNSS TIME                      
/* G:C1WC2W R:C1PC2P E:C1XC5X C:C2IC6I J:C1CC2S             
/* PCV:IGS20_2290 OL/AL:FES2004  NONE     YN ORB:CoN CLK:CoN
*  2024 01 10 15 15  0.00000000
PC01 -34335.923839  24471.944551    901.775370    881.857152
PC02   4367.419927  41909.984531   -510.332147    328.751149
PC03 -14794.283492  39460.529234    434.055016   -111.508417
PC04 -39620.573353  14428.557759   1049.721685    675.080914
PC05  21848.053279  36068.927490   -810.853804   -533.767383
PC06 -10075.083881  22844.374013 -33966.825543     39.915165
PC07 -14383.635307  37947.369830  11120.186073   -615.540430
PC08    716.945407  36616.873880  21083.328268    122.049645
PC09   1525.866602  25067.936123 -33349.938420   -334.458077
PC10  -8498.694047  37734.766732  16447.632919    131.356544
PC11  10570.384067  13852.278968  21874.314992    351.172464
PC12 -11186.861510  14812.372926  20882.417496    800.284155
PC13   5293.764123  39102.150645  15418.876763    405.949511
PC14   3338.381010  21494.835627 -17437.610155    -62.497769
PC16 -10122.399682  22201.871572 -34178.548763   -273.882332
PC19 -10103.474355 -13840.416271  22053.725372   -939.710492
PC20   2806.574410 -25251.971196  11581.973002    -52.542471
PC21 -15242.114375  22315.856061   6935.613263   -964.577776
PC22 -17963.040934   6177.408763  20434.201936   -152.940344
PC23  20453.210654   6175.666147  17950.496049   -791.954633
PC24   5067.684373  23860.106928 -13605.559289    776.638014
PC25  18734.801848  20372.679619   3644.399581    298.619991
PC26 -10020.635431  13442.133790 -22333.873328   -232.753815
PC27  19511.323538 -12639.977576 -15443.261737    254.788254
PC28  27732.861742  -3028.587333   -662.356044    193.220212
PC29 -19912.859271  -9473.989843 -17106.668946    226.334667
PC30    551.118556 -16171.941507 -22738.299355    -14.253721
PC32  15091.513491 -22409.054414  -6989.780694   -552.093075
PC33  10148.644655  13859.607412 -21986.166166   -942.744090
PC34   1175.177189  16044.935716  22793.432680    344.162595
PC35 -27624.743465   4054.732052    634.257310    460.471731
PC36 -17954.156490 -21138.382901  -3014.189315    -58.042483
PC37  10779.415751 -12667.015059  22405.302980   -931.638226
PC38  -5614.978284  32325.536154  26609.044467    129.609208
PC39 -17765.831903  20248.134392 -32439.263524     -6.567317
PC40 -22533.774809  34217.220223   9317.338645    -51.493881
PC41  17825.354734  -5423.617327 -20723.018259   -878.685969
PC42  -3947.958634  25675.041390 -10123.174246   -467.655171
PC43  19128.369766  10085.262542  17619.584521     55.859652
PC44 -19205.625595  13386.615509  15202.831617    349.627408
PC45 -20267.279083  -5860.868074 -18263.029977    -62.022571
PC46  -5913.042876 -24032.194700  12836.098676   -114.530255
PC59 -32273.361541  27126.683511     56.325998     -0.723200
PC60   7296.461265  41527.168520    927.238437     -0.291664
PC62 -39617.806482  14363.538002   -911.734909      0.298828
PE02 -12470.842230 -20812.064280 -16949.593042     93.909871
PE03 -15321.551147  -9633.013178  23416.136154    -86.087673
PE04  26195.326892  -6830.860151 -11962.729842   -300.439376
PE05   4324.261728 -20291.715549  21111.418481   4708.999770
PE07 -21864.807538  19010.320461  -6047.654813    -97.675502
PE08 -26029.273378   6384.029449  12557.333405   -205.856696
PE09  21952.814630 -18949.285923   5951.681846   -294.579773
PE10  22172.562742  -2611.159979 -19435.301263   -593.089221
PE11  13622.626585 -10483.647932 -24096.808335   3280.668046
PE12  26463.792518   4765.329874 -12349.434287   -856.757429
PE13 -14265.076503   9946.736102  23964.397623    -19.868861
PE14 -22355.168460   -740.245061 -13949.134436      6.620798
PE15 -26607.884885  -5171.672491  11915.624659    -79.434828
PE18  28038.697128 -13026.162903   2549.870919    195.192201
PE19  13133.572923  11302.441994 -23993.381593   -840.054282
PE21   1426.655351  29569.298419    317.686716   -573.203006
PE24  11302.785652 -21040.647897  17446.283282   -534.473169
PE25  -1173.657634 -29570.274224     49.125944     -0.713652
PE26   6830.383974  19276.794890  21410.113611    335.296477
PE27 -10985.982130  21460.195517 -17189.143289   -245.946335
PE30 -16857.699588    437.841406 -24342.223664   -813.346948
PE31  16785.798454   -774.603341  24368.719462    -13.481184
PE33  22841.942126  17274.166715   7502.920217      5.717837
PE34 -23210.036372 -17002.781917  -6940.713209    -88.227423
PE36  -6232.370528 -19014.239405 -21806.375677   -169.919885
PG01 -22763.567673 -13912.573357  -2320.155241    165.745936
PG02 -20239.364199 -14745.861764  -8701.225412   -502.900317
PG03 -11444.613521 -17976.315196  15786.923836    116.709190
PG04 -15830.649390  -6859.344583  20240.637831    262.537487
PG05   6698.166177  24960.007946  -6098.242848   -157.446096
PG06  -9962.838955  11128.843840  22041.024982    449.423600
PG07 -24148.996335  -3970.991322 -10403.115730    -33.922613
PG08  -8472.411231 -12820.193892 -21742.752248   -161.409418
PG09 -22720.810177   4492.992162  12971.447003     54.459619
PG10  11008.658435 -16032.630401 -17731.745089    -68.783786
PG11   1715.856454  17123.321448  20268.563623   -534.756511
PG12  10457.666973  18667.968765  15498.618208   -466.486212
PG13  -2716.831658  16776.352975 -20556.554976    614.498503
PG14 -13535.503856  12224.695099 -19223.449775    294.954489
PG15   9922.001437  12586.885171 -21663.235557    115.836670
PG16    448.327606 -26300.280286   -674.263778   -386.920053
PG17 -23111.676514  13247.044891    204.716569    720.196808
PG18  23358.887075   2831.054048 -12482.957331   -528.716721
PG19 -18978.558620  16156.479048   8456.875479    424.649707
PG20     26.451335  25447.669141   7970.091534    392.221435
PG21 -17367.281025 -16215.135762 -12304.995107    138.842834
PG22 -10609.202350  19668.421103 -14140.608806     50.618055
PG23  14651.881230  -2657.357364 -21966.349302    132.687520
PG24  18937.041188  15935.570669 -10586.679671   -411.188153
PG25  15091.499665   6936.718189  20447.742848    484.770607
PG26   4428.294619 -23936.695827  10026.617582    201.589024
PG28  12681.205359 -10229.855995  20949.111311    -94.692440
PG29  22612.038890  -1617.819707  13874.446371   -608.876144
PG30 -18656.175560   5432.851391 -18097.642670   -447.104173
PG31   3977.751848 -15012.828847  21297.062327   -227.209762
PG32  20725.407343 -16198.304330   2914.534744   -603.997982
PJ02 -22495.891296  29140.060611 -15862.758162     -1.078337
PJ03 -27339.446333  24024.396525  26358.655288     -0.143519
PJ04 -30033.276290  29182.818880  10854.233380     76.471590
PJ07 -25389.006681  33673.064427    -28.113253      0.003042
PR01 -13614.362416   2203.786595  21458.625404     74.242400
PR02 -17037.250316  16650.224127   9263.047208    -22.378690
PR03 -10431.573900  21821.537752  -8158.979007     92.494567
PR04   1388.382515  14719.603507 -20762.496064    218.840940
PR05  12640.014825   -115.296562 -22138.582664    125.155211
PR06  16211.276565 -17953.944268  -8065.787729   -145.723985
PR07   9817.948944 -21684.755365   9132.784000     73.281429
PR08  -1839.305509 -14563.915800  20909.918402    -73.957248
PR09   9114.419774  -7011.365783  22785.673788    163.627428
PR10   -501.950712 -19187.881539  16739.209814   -107.401433
PR11 -11140.761023 -22954.467298    216.787508   -226.308292
PR12 -14759.029588 -11471.353314 -17330.126981     35.453116
PR13 -10184.342418   4370.120558 -22995.619518    -43.149566
PR14   1797.459198  20418.532119 -15168.380487     25.921899
PR15  11585.557875  22688.597218   1289.746159     83.217584
PR16  14752.429534  11684.020500  17205.239531     22.343030
PR17  -5120.684027  10045.665162  22891.046650     51.138926
PR18  12614.480618  10170.439502  19702.047595    121.414198
PR19  23348.836852   6557.468029   7912.943639   -261.527544
PR20  21811.368767  -2922.499260 -12845.798164   -106.590910
PR21   4776.338274  -9985.486317 -22976.133794    -67.846851
PR22 -13360.639618 -10698.946774 -18888.092954    102.500266
PR23 -24754.476276  -4509.974657  -4211.600297   -108.399243
PR24 -21364.355101   4346.423028  13254.697719    -39.349069
PR25   5539.312221 -10125.726668 -22739.241741     27.899269
PR26  -1262.531233 -15171.910956  20493.023960   -204.202350
EOF
